[{"OBJECT_NAME":"STARLINK-5968","OBJECT_ID":"2023-042AA","EPOCH":"2026-03-09T00:18:54.185760","MEAN_MOTION":15.02540905,"ECCENTRICITY":0.00012449,"INCLINATION":43.0073,"RA_OF_ASC_NODE":59.348,"ARG_OF_PERICENTER":275.0415,"MEAN_ANOMALY":85.0285,"EPHEMERIS_TYPE":0,"CLASSIFICATION_TYPE":"U","NORAD_CAT_ID":56010,"ELEMENT_SET_NO":999,"REV_AT_EPOCH":16281,"BSTAR":4.2292364e-5,"MEAN_MOTION_DOT":3.68e-6,"MEAN_MOTION_DDOT":0},{"OBJECT_NAME":"CZ-2C DEB","OBJECT_ID":"2014-014E","EPOCH":"2026-03-09T21:08:21.809472","MEAN_MOTION":14.90058698,"ECCENTRICITY":0.00536612,"INCLINATION":98.2109,"RA_OF_ASC_NODE":181.9668,"ARG_OF_PERICENTER":42.9038,"MEAN_ANOMALY":317.6346,"EPHEMERIS_TYPE":0,"CLASSIFICATION_TYPE":"U","NORAD_CAT_ID":39628,"ELEMENT_SET_NO":999,"REV_AT_EPOCH":63514,"BSTAR":0.00154127,"MEAN_MOTION_DOT":0.00015258,"MEAN_MOTION_DDOT":0}]
